GEESAT-5 01             
1 65550U 25201A   25280.65844608  .00001039  00000+0  14291-3 0  9991
2 65550  49.9863 131.1655 0005263  46.2621 313.8753 14.86273013  4291
GEESAT-5 02             
1 65551U 25201B   25274.93604602  .00002101  00000+0  26249-3 0  9991
2 65551  49.9859 157.7151 0010898  61.8791 298.3249 14.86233581  3420
GEESAT-5 03             
1 65552U 25201C   25261.41124059  .00000554  00000+0  91688-4 0  9994
2 65552  49.9847 220.5502 0005208 303.9168  56.1275 14.84566022  1428
GEESAT-5 04             
1 65553U 25201D   25268.98885193  .00002053  00000+0  25763-3 0  9993
2 65553  49.9885 185.0663 0012009  10.6744 349.4448 14.86136761  2553
GEESAT-5 05             
1 65554U 25201E   25258.44702736  .00001126  00000+0  15353-3 0  9999
2 65554  49.9818 234.2791 0009811 310.5484  49.4600 14.86053021   988
GEESAT-5 06             
1 65555U 25201F   25260.99959200  .00000005  00000+0  26294-4 0  9995
2 65555  49.9903 222.3799 0012607 343.4279  16.6247 14.87871501  1362
GEESAT-5 07             
1 65556U 25201G   25258.57138364  .00003308  00000+0  34979-3 0  9994
2 65556  49.9861 233.5897 0011960 318.2053  41.7975 14.91577636  1005
GEESAT-5 08             
1 65557U 25201H   25258.43699944  .00005148  00000+0  52735-3 0  9990
2 65557  49.9816 234.2170 0013316 323.8512  36.1528 14.91824266   990
GEESAT-5 09             
1 65558U 25201J   25258.56995882  .00003611  00000+0  37543-3 0  9998
2 65558  49.9806 233.5797 0010843 312.9225  47.0806 14.92028831  1007
GEESAT-5 10             
1 65559U 25201K   25280.94204057  .00003923  00000+0  46642-3 0  9999
2 65559  49.9782 129.2512 0010916  23.8750 336.2693 14.86299776  4336
GEESAT-5 11             
1 65560U 25201L   25269.10102975  .00002553  00000+0  31409-3 0  9995
2 65560  49.9850 184.2987 0010140  32.6505 327.5060 14.86134834  2596
JIELONG-3 DEB           
1 65561U 25201M   25267.26617840  .00121294  00000+0  21683-2 0  9999
2 65561  50.0759 188.2391 0179625  47.9209 313.6872 15.33287361  2364
YAOGAN-45               
1 65563U 25202A   25280.76759726 -.00000026  00000+0  00000+0 0  9999
2 65563  20.0139  13.6553 0002919 289.6482  70.3419  5.31205674  1867
CZ-7A R/B               
1 65564U 25202B   25254.39572250  .01132414 -10468-5  24484-3 0  9994
2 65564  20.0832  29.7830 3522366 136.7802 257.0182  8.63078683   213
PRAETORIAN SDA_602      
1 65565U 25203A   25280.87805711  .00000095  00000+0  73775-4 0  9999
2 65565  81.3007 244.5141 0006665 148.3312 211.8247 13.84612355  3785
PRAETORIAN SDA_603      
1 65566U 25203B   25280.93568908  .00000092  00000+0  69992-4 0  9994
2 65566  81.3013 244.4316 0010562 150.8846 209.2903 13.85355615  3792
PRAETORIAN SDA_604      
1 65567U 25203C   25280.87885268  .00000086  00000+0  65972-4 0  9996
2 65567  81.3034 244.5236 0006843 151.9337 208.2190 13.84572200  3788
PRAETORIAN SDA_605      
1 65568U 25203D   25280.93906589  .00000073  00000+0  53405-4 0  9998
2 65568  81.3001 244.4288 0009765 149.6298 210.5427 13.85183969  3796
PRAETORIAN SDA_606      
1 65569U 25203E   25280.94878866  .00000096  00000+0  74399-4 0  9996
2 65569  81.3031 244.4526 0007339 149.5043 210.6542 13.84690328  3797
PRAETORIAN SDA_607      
1 65570U 25203F   25280.93827636  .00000074  00000+0  54690-4 0  9994
2 65570  81.3017 244.4377 0009933 150.0674 210.1054 13.85224349  3796
PRAETORIAN SDA_608      
1 65571U 25203G   25280.87966899  .00000095  00000+0  74074-4 0  9994
2 65571  81.2982 244.5082 0006683 152.8627 207.2881 13.84530510  3781
PRAETORIAN SDA_609      
1 65572U 25203H   25280.94726620  .00000091  00000+0  70650-4 0  9991
2 65572  81.3026 244.4488 0007607 147.3597 212.8032 13.84767742  3793
PRAETORIAN SDA_610      
1 65573U 25203J   25280.87733535  .00000099  00000+0  77938-4 0  9991
2 65573  81.2982 244.5052 0007170 150.4588 209.6975 13.84649660  3789
PRAETORIAN SDA_611      
1 65574U 25203K   25280.88113813  .00000102  00000+0  80213-4 0  9999
2 65574  81.2989 244.5125 0006443 155.3991 204.7474 13.84456086  3780
PRAETORIAN SDA_612      
1 65575U 25203L   25280.93985313  .00000091  00000+0  70043-4 0  9995
2 65575  81.3016 244.4396 0009599 148.9814 211.1912 13.85144305  3798
PRAETORIAN SDA_613      
1 65576U 25203M   25280.94805375  .00000097  00000+0  75579-4 0  9991
2 65576  81.2985 244.4373 0007483 148.6582 211.5023 13.84727580  3795
PRAETORIAN SDA_614      
1 65577U 25203N   25280.94661856  .00000091  00000+0  70203-4 0  9999
2 65577  81.2998 244.4398 0007698 146.2162 213.9487 13.84800649  3803
PRAETORIAN SDA_615      
1 65578U 25203P   25280.93732017  .00000113  00000+0  89127-4 0  9997
2 65578  81.3001 244.4268 0010154 150.6882 209.4847 13.85273081  3798
PRAETORIAN SDA_616      
1 65579U 25203Q   25280.88040476  .00000097  00000+0  75623-4 0  9990
2 65579  81.3030 244.5240 0006542 153.8301 206.3187 13.84493215  3783
PRAETORIAN SDA_617      
1 65580U 25203R   25280.94149719  .00000101  00000+0  78718-4 0  9993
2 65580  81.3017 244.4415 0009227 147.9080 212.2640 13.85060763  3794
PRAETORIAN SDA_618      
1 65581U 25203S   25280.93650004  .00000103  00000+0  79817-4 0  9990
2 65581  81.3001 244.4264 0010351 150.7384 209.4355 13.85314649  3795
PRAETORIAN SDA_619      
1 65582U 25203T   25280.94238752  .00000082  00000+0  61841-4 0  9998
2 65582  81.3017 244.4421 0009002 147.7210 212.4500 13.85015626  4423
PRAETORIAN SDA_620      
1 65583U 25203U   25280.94320644  .00000084  00000+0  64048-4 0  9995
2 65583  81.3005 244.4370 0008807 147.4968 212.6733 13.84973954  3798
PRAETORIAN SDA_621      
1 65584U 25203V   25280.94065384  .00000077  00000+0  57223-4 0  9992
2 65584  81.3001 244.4310 0009430 148.4862 211.6862 13.85103239  3790
PRAETORIAN SDA_601      
1 65585U 25203W   25280.88197206  .00000088  00000+0  67764-4 0  9998
2 65585  81.3016 244.5217 0006365 157.2044 202.9396 13.84413763  3787
PROGRESS-MS 32          
1 65586U 25204A   25280.81947814  .00013106  00000+0  23928-3 0  9999
2 65586  51.6310 108.8436 0000865 215.7114 144.3817 15.49752917   578
NUSANTARA LIMA (NUSANT*)
1 65588U 25205A   25279.95309561 -.00000297  00000+0  00000+0 0  9996
2 65588   0.3057 263.7271 4313814 114.1762  90.9622  0.99097833   223
COSMOS 2596 [GLONASS-K1]
1 65590U 25206B   25275.45986866 -.00000019  00000+0  00000+0 0  9992
2 65590  64.8779 323.9566 0325832 289.7911 138.8908  2.12892576   416
FREGAT R/B              
1 65591U 25206C   25256.15803299 -.00000057  00000+0  00000+0 0  9999
2 65591  64.7973 324.6194 0063593 269.3577  89.9798  2.14914099    18
STARLINK-35267          
1 65592U 25207A   25281.00003472 -.01529220  00000+0 -39386-1 0  9999
2 65592  97.6026 344.1943 0001955  71.0736 167.1187 15.42307859  5090
STARLINK-35269          
1 65593U 25207B   25281.00003472 -.00084515  00000+0 -15679-2 0  9992
2 65593  97.6033 344.2042 0001561  83.8130 180.0347 15.49202437  5097
STARLINK-35191          
1 65594U 25207C   25281.00003472  .00007406  00000+0  13786-3 0  9993
2 65594  97.6027 344.2041 0001511  86.7335 179.0171 15.49180303  4936
STARLINK-35261          
1 65595U 25207D   25281.00003472 -.00025614  00000+0 -47084-3 0  9995
2 65595  97.6029 344.2055 0001597  85.7903 181.8972 15.49176122  5090
STARLINK-35253          
1 65596U 25207E   25281.00003472 -.01536653  00000+0 -34270-1 0  9998
2 65596  97.6034 344.2071 0002145  78.8246 187.3439 15.46545423  4884
STARLINK-35263          
1 65597U 25207F   25281.00003472 -.00049933  00000+0 -92206-3 0  9993
2 65597  97.6028 344.2075 0001686  83.7187 187.8117 15.49187162  5097
STARLINK-35248          
1 65598U 25207G   25281.00003472 -.00079434  00000+0 -14727-2 0  9994
2 65598  97.6026 344.2085 0001621  83.5223 189.9270 15.49200597  5096
STARLINK-35245          
1 65599U 25207H   25281.00003472 -.00054430  00000+0 -10057-2 0  9996
2 65599  97.6028 344.2095 0001703  86.1184 189.2525 15.49190162  5098
STARLINK-35229          
1 65600U 25207J   25281.00003472 -.01578021  00000+0 -39311-1 0  9990
2 65600  97.6023 344.2021 0002064  84.9585 175.4091 15.43395623  5095
STARLINK-35234          
1 65601U 25207K   25281.00003472 -.01606024  00000+0 -34434-1 0  9997
2 65601  97.6025 344.2089 0001641  95.1562 183.1024 15.47819711  5096
STARLINK-35255          
1 65602U 25207L   25281.00003472 -.00044998  00000+0 -83030-3 0  9991
2 65602  97.6026 344.2119 0001576  90.3303 190.8042 15.49185003  5096
STARLINK-35250          
1 65603U 25207M   25281.00003472 -.00046864  00000+0 -86495-3 0  9994
2 65603  97.6028 344.2132 0001749  88.4469 196.5248 15.49186534  5098
STARLINK-35251          
1 65604U 25207N   25281.00003472 -.00050369  00000+0 -93020-3 0  9992
2 65604  97.6030 344.2126 0001723  81.1111 201.9434 15.49186121  5091
STARLINK-35171          
1 65605U 25207P   25281.00003472 -.00030824  00000+0 -56728-3 0  9991
2 65605  97.6029 344.2148 0001587  87.0067 199.8901 15.49179701  4939
STARLINK-35195          
1 65606U 25207Q   25281.00003472 -.00036124  00000+0 -66555-3 0  9990
2 65606  97.6027 344.2156 0001309  85.0875 203.7304 15.49181458  5096
STARLINK-35156          
1 65607U 25207R   25281.00003472 -.00035514  00000+0 -65422-3 0  9995
2 65607  97.6029 344.2163 0001456  86.0304 204.7082 15.49181135  5094
STARLINK-35185          
1 65608U 25207S   25281.00003472 -.00043794  00000+0 -80787-3 0  9996
2 65608  97.6028 344.2174 0001454  86.6023 206.0560 15.49186777  5091
STARLINK-35053          
1 65609U 25207T   25281.00003472 -.00026712  00000+0 -49112-3 0  9995
2 65609  97.6028 344.2182 0001411  90.7431 203.8326 15.49179229  4934
STARLINK-35178          
1 65610U 25207U   25281.00003472 -.01347080  00000+0 -27172-1 0  9992
2 65610  97.6025 344.2171 0001457 105.1874 191.2433 15.49517599  5096
STARLINK-35186          
1 65611U 25207V   25281.00003472 -.00050919  00000+0 -94039-3 0  9992
2 65611  97.6029 344.2216 0001482  86.8539 215.4074 15.49188163  5093
